start=new Date('2023-02-22T00:00:00.000Z').valueOf();
sats=[{"LAUNCH_DATE":"2019-11-11","ELEMENT_SET_NO":"999","SITE":"AFETR","CENTER_NAME":"EARTH","NORAD_CAT_ID":"44747","OBJECT_TYPE":"PAYLOAD","MEAN_MOTION_DDOT":"0.0000000000000","REV_AT_EPOCH":"18060","EPOCH":"2023-02-21T17:38:43.321632","RA_OF_ASC_NODE":"178.2248","INCLINATION":"53.0538","COUNTRY_CODE":"US","EPHEMERIS_TYPE":"0","MEAN_ELEMENT_THEORY":"SGP4","ECCENTRICITY":"0.00011340","OBJECT_ID":"2019-074AL","BSTAR":"0.00019214000000","OBJECT_NAME":"STARLINK-1042","SEMIMAJOR_AXIS":"6922.914","FILE":"3821329","MEAN_ANOMALY":"268.1391","CLASSIFICATION_TYPE":"U","RCS_SIZE":"LARGE","PERIOD":"95.542","MEAN_MOTION":"15.07194648","ARG_OF_PERICENTER":"91.9728","TLE_LINE2":"2 44747  53.0538 178.2248 0001134  91.9728 268.1391 15.07194648180609","GP_ID":"226328645","MEAN_MOTION_DOT":"0.00002642","TLE_LINE1":"1 44747U 19074AL  23052.73522363  .00002642  00000-0  19214-3 0  9994","PERIAPSIS":"543.994","REF_FRAME":"TEME","APOAPSIS":"545.564","DECAY_DATE":null,"TIME_SYSTEM":"UTC"},{"SITE":"AFETR","CENTER_NAME":"EARTH","LAUNCH_DATE":"2019-11-11","ELEMENT_SET_NO":"999","MEAN_MOTION_DDOT":"0.0000000000000","REV_AT_EPOCH":"18060","NORAD_CAT_ID":"44748","OBJECT_TYPE":"PAYLOAD","INCLINATION":"53.0516","EPOCH":"2023-02-21T18:41:19.062240","RA_OF_ASC_NODE":"178.1820","EPHEMERIS_TYPE":"0","MEAN_ELEMENT_THEORY":"SGP4","COUNTRY_CODE":"US","ECCENTRICITY":"0.00009950","OBJECT_ID":"2019-074AM","CLASSIFICATION_TYPE":"U","BSTAR":"0.00210050000000","OBJECT_NAME":"STARLINK-1043","SEMIMAJOR_AXIS":"6925.146","MEAN_ANOMALY":"283.5075","FILE":"3821329","MEAN_MOTION":"15.06466110","ARG_OF_PERICENTER":"76.6025","TLE_LINE2":"2 44748  53.0516 178.1820 0000995  76.6025 283.5075 15.06466110180600","RCS_SIZE":"LARGE","PERIOD":"95.588","PERIAPSIS":"546.322","REF_FRAME":"TEME","APOAPSIS":"547.700","DECAY_DATE":null,"TIME_SYSTEM":"UTC","GP_ID":"226329393","MEAN_MOTION_DOT":"0.00031200","TLE_LINE1":"1 44748U 19074AM  23052.77869285  .00031200  00000-0  21005-2 0  9998"},{"CLASSIFICATION_TYPE":"U","BSTAR":"0.00201610000000","OBJECT_NAME":"STARLINK-1046","SEMIMAJOR_AXIS":"6925.167","MEAN_ANOMALY":"291.5703","FILE":"3821329","ECCENTRICITY":"0.00014450","OBJECT_ID":"2019-074AQ","APOAPSIS":"548.033","PERIAPSIS":"546.031","REF_FRAME":"TEME","DECAY_DATE":null,"TIME_SYSTEM":"UTC","GP_ID":"226328143","MEAN_MOTION_DOT":"0.00029924","TLE_LINE1":"1 44751U 19074AQ  23052.72709036  .00029924  00000-0  20161-2 0  9996","MEAN_MOTION":"15.06459183","ARG_OF_PERICENTER":"68.5440","TLE_LINE2":"2 44751  53.0518 178.4154 0001445  68.5440 291.5703 15.06459183180598","RCS_SIZE":"LARGE","PERIOD":"95.588","MEAN_MOTION_DDOT":"0.0000000000000","REV_AT_EPOCH":"18059","NORAD_CAT_ID":"44751","OBJECT_TYPE":"PAYLOAD","SITE":"AFETR","CENTER_NAME":"EARTH","LAUNCH_DATE":"2019-11-11","ELEMENT_SET_NO":"999","EPHEMERIS_TYPE":"0","MEAN_ELEMENT_THEORY":"SGP4","COUNTRY_CODE":"US","INCLINATION":"53.0518","EPOCH":"2023-02-21T17:27:00.607104","RA_OF_ASC_NODE":"178.4154"},{"COUNTRY_CODE":"US","EPHEMERIS_TYPE":"0","MEAN_ELEMENT_THEORY":"SGP4","EPOCH":"2023-02-21T19:31:44.481792","RA_OF_ASC_NODE":"158.0219","INCLINATION":"53.0526","NORAD_CAT_ID":"44752","OBJECT_TYPE":"PAYLOAD","MEAN_MOTION_DDOT":"0.0000000000000","REV_AT_EPOCH":"18088","LAUNCH_DATE":"2019-11-11","ELEMENT_SET_NO":"999","SITE":"AFETR","CENTER_NAME":"EARTH","GP_ID":"226328393","MEAN_MOTION_DOT":"0.00036749","TLE_LINE1":"1 44752U 19074AR  23052.81370928  .00036749  00000-0  24695-2 0  9990","PERIAPSIS":"546.226","APOAPSIS":"547.861","REF_FRAME":"TEME","DECAY_DATE":null,"TIME_SYSTEM":"UTC","RCS_SIZE":"LARGE","PERIOD":"95.589","MEAN_MOTION":"15.06455451","ARG_OF_PERICENTER":"81.4215","TLE_LINE2":"2 44752  53.0526 158.0219 0001181  81.4215 278.6908 15.06455451180884","BSTAR":"0.00246950000000","OBJECT_NAME":"STARLINK-1047","SEMIMAJOR_AXIS":"6925.179","MEAN_ANOMALY":"278.6908","FILE":"3821329","CLASSIFICATION_TYPE":"U","ECCENTRICITY":"0.00011810","OBJECT_ID":"2019-074AR"},{"MEAN_ANOMALY":"284.9786","FILE":"3821329","SEMIMAJOR_AXIS":"6925.170","OBJECT_NAME":"STARLINK-1048","BSTAR":"0.00230370000000","CLASSIFICATION_TYPE":"U","OBJECT_ID":"2019-074AS","ECCENTRICITY":"0.00011530","TLE_LINE1":"1 44753U 19074AS  23052.75290032  .00034253  00000-0  23037-2 0  9998","MEAN_MOTION_DOT":"0.00034253","GP_ID":"226329143","TIME_SYSTEM":"UTC","DECAY_DATE":null,"PERIAPSIS":"546.237","APOAPSIS":"547.834","REF_FRAME":"TEME","PERIOD":"95.588","RCS_SIZE":"LARGE","TLE_LINE2":"2 44753  53.0506 138.2996 0001153  75.1331 284.9786 15.06458170181159","ARG_OF_PERICENTER":"75.1331","MEAN_MOTION":"15.06458170","OBJECT_TYPE":"PAYLOAD","NORAD_CAT_ID":"44753","REV_AT_EPOCH":"18115","MEAN_MOTION_DDOT":"0.0000000000000","ELEMENT_SET_NO":"999","LAUNCH_DATE":"2019-11-11","CENTER_NAME":"EARTH","SITE":"AFETR","COUNTRY_CODE":"US","MEAN_ELEMENT_THEORY":"SGP4","EPHEMERIS_TYPE":"0","RA_OF_ASC_NODE":"138.2996","EPOCH":"2023-02-21T18:04:10.587648","INCLINATION":"53.0506"},{"RCS_SIZE":"LARGE","PERIOD":"95.591","MEAN_MOTION":"15.06422463","ARG_OF_PERICENTER":"91.4891","TLE_LINE2":"2 44754  53.0510 139.1780 0001092  91.4891 268.6223 15.06422463181128","GP_ID":"226272217","MEAN_MOTION_DOT":"0.00033368","TLE_LINE1":"1 44754U 19074AT  23052.55754653  .00033368  00000-0  22471-2 0  9998","PERIAPSIS":"546.388","APOAPSIS":"547.901","REF_FRAME":"TEME","DECAY_DATE":null,"TIME_SYSTEM":"UTC","ECCENTRICITY":"0.00010920","OBJECT_ID":"2019-074AT","OBJECT_NAME":"STARLINK-1049","BSTAR":"0.00224710000000","SEMIMAJOR_AXIS":"6925.280","FILE":"3819803","MEAN_ANOMALY":"268.6223","CLASSIFICATION_TYPE":"U","EPOCH":"2023-02-21T13:22:52.020192","RA_OF_ASC_NODE":"139.1780","INCLINATION":"53.0510","COUNTRY_CODE":"US","EPHEMERIS_TYPE":"0","MEAN_ELEMENT_THEORY":"SGP4","LAUNCH_DATE":"2019-11-11","ELEMENT_SET_NO":"999","SITE":"AFETR","CENTER_NAME":"EARTH","NORAD_CAT_ID":"44754","OBJECT_TYPE":"PAYLOAD","MEAN_MOTION_DDOT":"0.0000000000000","REV_AT_EPOCH":"18112"},{"BSTAR":"0.00009961600000","OBJECT_NAME":"STARLINK-1052","SEMIMAJOR_AXIS":"6925.241","MEAN_ANOMALY":"283.9994","FILE":"3821329","CLASSIFICATION_TYPE":"U","ECCENTRICITY":"0.00010870","OBJECT_ID":"2019-074AW","GP_ID":"226327644","MEAN_MOTION_DOT":"0.00001204","TLE_LINE1":"1 44757U 19074AW  23052.75840575  .00001204  00000-0  99616-4 0  9993","APOAPSIS":"547.858","PERIAPSIS":"546.353","REF_FRAME":"TEME","DECAY_DATE":null,"TIME_SYSTEM":"UTC","RCS_SIZE":"LARGE","PERIOD":"95.590","MEAN_MOTION":"15.06435208","ARG_OF_PERICENTER":"76.1116","TLE_LINE2":"2 44757  53.0535 158.2735 0001087  76.1116 283.9994 15.06435208180871","NORAD_CAT_ID":"44757","OBJECT_TYPE":"PAYLOAD","MEAN_MOTION_DDOT":"0.0000000000000","REV_AT_EPOCH":"18087","LAUNCH_DATE":"2019-11-11","ELEMENT_SET_NO":"999","SITE":"AFETR","CENTER_NAME":"EARTH","COUNTRY_CODE":"US","EPHEMERIS_TYPE":"0","MEAN_ELEMENT_THEORY":"SGP4","EPOCH":"2023-02-21T18:12:06.256800","RA_OF_ASC_NODE":"158.2735","INCLINATION":"53.0535"},{"ECCENTRICITY":"0.00012710","OBJECT_ID":"2019-074AX","OBJECT_NAME":"STARLINK-1053","BSTAR":"0.00189250000000","SEMIMAJOR_AXIS":"6925.213","MEAN_ANOMALY":"273.8669","FILE":"3821329","CLASSIFICATION_TYPE":"U","RCS_SIZE":"LARGE","PERIOD":"95.589","MEAN_MOTION":"15.06444264","ARG_OF_PERICENTER":"86.2466","TLE_LINE2":"2 44758  53.0541 177.9868 0001271  86.2466 273.8669 15.06444264180610","GP_ID":"226327894","MEAN_MOTION_DOT":"0.00028054","TLE_LINE1":"1 44758U 19074AX  23052.84135878  .00028054  00000-0  18925-2 0  9991","REF_FRAME":"TEME","PERIAPSIS":"546.198","APOAPSIS":"547.958","DECAY_DATE":null,"TIME_SYSTEM":"UTC","LAUNCH_DATE":"2019-11-11","ELEMENT_SET_NO":"999","SITE":"AFETR","CENTER_NAME":"EARTH","NORAD_CAT_ID":"44758","OBJECT_TYPE":"PAYLOAD","MEAN_MOTION_DDOT":"0.0000000000000","REV_AT_EPOCH":"18061","EPOCH":"2023-02-21T20:11:33.398592","RA_OF_ASC_NODE":"177.9868","INCLINATION":"53.0541","COUNTRY_CODE":"US","EPHEMERIS_TYPE":"0","MEAN_ELEMENT_THEORY":"SGP4"},{"TLE_LINE1":"1 44759U 19074AY  23052.62388851  .00005799  00000-0  40758-3 0  9990","MEAN_MOTION_DOT":"0.00005799","GP_ID":"226328646","TIME_SYSTEM":"UTC","DECAY_DATE":null,"REF_FRAME":"TEME","PERIAPSIS":"546.314","APOAPSIS":"547.955","PERIOD":"95.591","RCS_SIZE":"LARGE","TLE_LINE2":"2 44759  53.0525 178.8745 0001185  73.9778 286.1342 15.06425811178226","ARG_OF_PERICENTER":"73.9778","MEAN_MOTION":"15.06425811","FILE":"3821329","MEAN_ANOMALY":"286.1342","SEMIMAJOR_AXIS":"6925.269","BSTAR":"0.00040758000000","OBJECT_NAME":"STARLINK-1054","CLASSIFICATION_TYPE":"U","OBJECT_ID":"2019-074AY","ECCENTRICITY":"0.00011850","COUNTRY_CODE":"US","MEAN_ELEMENT_THEORY":"SGP4","EPHEMERIS_TYPE":"0","RA_OF_ASC_NODE":"178.8745","EPOCH":"2023-02-21T14:58:23.967264","INCLINATION":"53.0525","OBJECT_TYPE":"PAYLOAD","NORAD_CAT_ID":"44759","REV_AT_EPOCH":"17822","MEAN_MOTION_DDOT":"0.0000000000000","ELEMENT_SET_NO":"999","LAUNCH_DATE":"2019-11-11","CENTER_NAME":"EARTH","SITE":"AFETR"},{"SITE":"AFETR","CENTER_NAME":"EARTH","LAUNCH_DATE":"2019-11-11","ELEMENT_SET_NO":"999","MEAN_MOTION_DDOT":"0.0000000000000","REV_AT_EPOCH":"18062","NORAD_CAT_ID":"44760","OBJECT_TYPE":"PAYLOAD","INCLINATION":"53.0520","EPOCH":"2023-02-21T19:44:27.563136","RA_OF_ASC_NODE":"177.4412","EPHEMERIS_TYPE":"0","MEAN_ELEMENT_THEORY":"SGP4","COUNTRY_CODE":"US","ECCENTRICITY":"0.00007220","OBJECT_ID":"2019-074AZ","CLASSIFICATION_TYPE":"U","BSTAR":"0.00219540000000","OBJECT_NAME":"STARLINK-1055","SEMIMAJOR_AXIS":"6916.734","MEAN_ANOMALY":"159.9650","FILE":"3821329","MEAN_MOTION":"15.09214988","ARG_OF_PERICENTER":"200.1312","TLE_LINE2":"2 44760  53.0520 177.4412 0000722 200.1312 159.9650 15.09214988180623","RCS_SIZE":"LARGE","PERIOD":"95.414","PERIAPSIS":"538.100","REF_FRAME":"TEME","APOAPSIS":"539.099","DECAY_DATE":null,"TIME_SYSTEM":"UTC","GP_ID":"226329394","MEAN_MOTION_DOT":"0.00035191","TLE_LINE1":"1 44760U 19074AZ  23052.82254124  .00035191  00000-0  21954-2 0  9994"}];
